1 33777U 97051Q   17334.61720738 +.00000380 +00000-0 +11155-3 0  9998
2 33777 086.3885 206.8597 0008567 259.2815 100.7420 14.41230595461720
1 33874U 97051AT  17334.58745258 +.00001190 +00000-0 +42914-3 0  9993
2 33874 086.2923 207.2232 0078429 256.7960 162.5757 14.31220405456527